{
  "norad_id": 53826,
  "name": "STARLINK-4756",
  "history": [
    {
      "epoch": "2026-03-28T15:27:35.599392",
      "apogee_km": 540.6923516648521,
      "perigee_km": 538.8023856553327,
      "latitude_deg": -34.302319111114514,
      "longitude_deg": -15.560445120092481,
      "semi_major_axis_km": 6917.884368660092,
      "eccentricity": 0.0001366,
      "inclination_deg": 53.2177,
      "raan_deg": 218.9757,
      "arg_perigee_deg": 90.9679,
      "mean_anomaly_deg": 269.1469,
      "mean_motion_rev_day": 15.08838698
    }
  ]
}